start=new Date('2021-09-29T00:00:00.000Z').valueOf();
sats=[{"OBJECT_ID":"2019-074AZ","ELEMENT_SET_NO":"999","MEAN_MOTION":"15.06397429","COUNTRY_CODE":"US","SITE":"AFETR","TIME_SYSTEM":"UTC","FILE":"3132950","BSTAR":"0.00011561000000","OBJECT_TYPE":"PAYLOAD","APOAPSIS":"547.922","CENTER_NAME":"EARTH","RCS_SIZE":"LARGE","GP_ID":"185723797","REV_AT_EPOCH":"10375","MEAN_MOTION_DOT":"0.00001441","PERIOD":"95.592","LAUNCH_DATE":"2019-11-11","CLASSIFICATION_TYPE":"U","EPOCH":"2021-09-28T17:42:39.281760","ECCENTRICITY":"0.00010110","INCLINATION":"53.0531","TLE_LINE1":"1 44760U 19074AZ  21271.73795465  .00001441  00000-0  11561-3 0  9998","DECAY_DATE":null,"MEAN_ELEMENT_THEORY":"SGP4","TLE_LINE2":"2 44760  53.0531 312.3451 0001011  81.9683 278.1420 15.06397429103753","PERIAPSIS":"546.521","NORAD_CAT_ID":"44760","ARG_OF_PERICENTER":"81.9683","REF_FRAME":"TEME","RA_OF_ASC_NODE":"312.3451","MEAN_ANOMALY":"278.1420","MEAN_MOTION_DDOT":"0.0000000000000","OBJECT_NAME":"STARLINK-1055","SEMIMAJOR_AXIS":"6925.356","EPHEMERIS_TYPE":"0"},{"INCLINATION":"53.0545","TLE_LINE2":"2 44761  53.0545 312.2891 0000721  91.0067 269.1005 15.06401003103754","MEAN_ELEMENT_THEORY":"SGP4","DECAY_DATE":null,"TLE_LINE1":"1 44761U 19074BA  21271.74901256 -.00000051  00000-0  15431-4 0  9995","PERIAPSIS":"546.711","NORAD_CAT_ID":"44761","RA_OF_ASC_NODE":"312.2891","REF_FRAME":"TEME","ARG_OF_PERICENTER":"91.0067","MEAN_ANOMALY":"269.1005","EPHEMERIS_TYPE":"0","SEMIMAJOR_AXIS":"6925.345","MEAN_MOTION_DDOT":"0.0000000000000","OBJECT_NAME":"STARLINK-1056","COUNTRY_CODE":"US","MEAN_MOTION":"15.06401003","ELEMENT_SET_NO":"999","OBJECT_ID":"2019-074BA","FILE":"3132929","BSTAR":"0.00001543100000","TIME_SYSTEM":"UTC","SITE":"AFETR","OBJECT_TYPE":"PAYLOAD","APOAPSIS":"547.710","GP_ID":"185723196","RCS_SIZE":"LARGE","CENTER_NAME":"EARTH","PERIOD":"95.592","MEAN_MOTION_DOT":"-0.00000051","REV_AT_EPOCH":"10375","ECCENTRICITY":"0.00007210","CLASSIFICATION_TYPE":"U","EPOCH":"2021-09-28T17:58:34.685184","LAUNCH_DATE":"2019-11-11"},{"MEAN_ELEMENT_THEORY":"SGP4","TLE_LINE2":"2 44762  53.0530 292.2832 0000682  68.5637 291.5425 15.06394492104028","TLE_LINE1":"1 44762U 19074BB  21271.75086655  .00001503  00000-0  11974-3 0  9993","DECAY_DATE":null,"INCLINATION":"53.0530","NORAD_CAT_ID":"44762","PERIAPSIS":"546.758","RA_OF_ASC_NODE":"292.2832","REF_FRAME":"TEME","ARG_OF_PERICENTER":"68.5637","EPHEMERIS_TYPE":"0","MEAN_MOTION_DDOT":"0.0000000000000","OBJECT_NAME":"STARLINK-1057","SEMIMAJOR_AXIS":"6925.365","MEAN_ANOMALY":"291.5425","MEAN_MOTION":"15.06394492","COUNTRY_CODE":"US","OBJECT_ID":"2019-074BB","ELEMENT_SET_NO":"999","OBJECT_TYPE":"PAYLOAD","TIME_SYSTEM":"UTC","FILE":"3132929","BSTAR":"0.00011974000000","SITE":"AFETR","RCS_SIZE":"LARGE","GP_ID":"185723199","CENTER_NAME":"EARTH","APOAPSIS":"547.703","ECCENTRICITY":"0.00006820","LAUNCH_DATE":"2019-11-11","CLASSIFICATION_TYPE":"U","EPOCH":"2021-09-28T18:01:14.869920","REV_AT_EPOCH":"10402","MEAN_MOTION_DOT":"0.00001503","PERIOD":"95.592"},{"CENTER_NAME":"EARTH","GP_ID":"185714734","RCS_SIZE":"LARGE","APOAPSIS":"547.920","CLASSIFICATION_TYPE":"U","EPOCH":"2021-09-28T13:43:48.404928","LAUNCH_DATE":"2019-11-11","ECCENTRICITY":"0.00009990","PERIOD":"95.592","MEAN_MOTION_DOT":"-0.00001392","REV_AT_EPOCH":"10355","ELEMENT_SET_NO":"999","OBJECT_ID":"2019-074BC","MEAN_MOTION":"15.06395146","COUNTRY_CODE":"US","OBJECT_TYPE":"PAYLOAD","SITE":"AFETR","FILE":"3132662","BSTAR":"-0.00007461200000","TIME_SYSTEM":"UTC","ARG_OF_PERICENTER":"89.5459","REF_FRAME":"TEME","RA_OF_ASC_NODE":"313.0837","SEMIMAJOR_AXIS":"6925.363","OBJECT_NAME":"STARLINK-1058","MEAN_MOTION_DDOT":"0.0000000000000","EPHEMERIS_TYPE":"0","MEAN_ANOMALY":"270.5644","DECAY_DATE":null,"TLE_LINE1":"1 44763U 19074BC  21271.57208802 -.00001392  00000-0 -74612-4 0  9991","TLE_LINE2":"2 44763  53.0553 313.0837 0000999  89.5459 270.5644 15.06395146103551","MEAN_ELEMENT_THEORY":"SGP4","INCLINATION":"53.0553","NORAD_CAT_ID":"44763","PERIAPSIS":"546.537"},{"APOAPSIS":"547.900","RCS_SIZE":"LARGE","GP_ID":"185723230","CENTER_NAME":"EARTH","REV_AT_EPOCH":"10401","PERIOD":"95.592","MEAN_MOTION_DOT":"0.00002082","ECCENTRICITY":"0.00009870","LAUNCH_DATE":"2019-11-11","EPOCH":"2021-09-28T16:20:23.390592","CLASSIFICATION_TYPE":"U","COUNTRY_CODE":"US","MEAN_MOTION":"15.06399035","OBJECT_ID":"2019-074BD","ELEMENT_SET_NO":"999","TIME_SYSTEM":"UTC","FILE":"3132940","BSTAR":"0.00015859000000","SITE":"AFETR","OBJECT_TYPE":"PAYLOAD","REF_FRAME":"TEME","RA_OF_ASC_NODE":"292.5958","ARG_OF_PERICENTER":"87.0651","MEAN_ANOMALY":"273.0451","EPHEMERIS_TYPE":"0","OBJECT_NAME":"STARLINK-1059","MEAN_MOTION_DDOT":"0.0000000000000","SEMIMAJOR_AXIS":"6925.352","INCLINATION":"53.0542","MEAN_ELEMENT_THEORY":"SGP4","TLE_LINE2":"2 44764  53.0542 292.5958 0000987  87.0651 273.0451 15.06399035104016","TLE_LINE1":"1 44764U 19074BD  21271.68082628  .00002082  00000-0  15859-3 0  9992","DECAY_DATE":null,"PERIAPSIS":"546.533","NORAD_CAT_ID":"44764"},{"APOAPSIS":"547.800","CENTER_NAME":"EARTH","GP_ID":"185713733","RCS_SIZE":"LARGE","MEAN_MOTION_DOT":"-0.00000417","PERIOD":"95.593","REV_AT_EPOCH":"10382","CLASSIFICATION_TYPE":"U","EPOCH":"2021-09-28T13:35:51.514080","LAUNCH_DATE":"2019-11-11","ECCENTRICITY":"0.00008100","ELEMENT_SET_NO":"999","OBJECT_ID":"2019-074BE","COUNTRY_CODE":"US","MEAN_MOTION":"15.06391793","SITE":"AFETR","BSTAR":"-0.00000915510000","FILE":"3132662","TIME_SYSTEM":"UTC","OBJECT_TYPE":"PAYLOAD","ARG_OF_PERICENTER":"81.1645","REF_FRAME":"TEME","RA_OF_ASC_NODE":"293.1019","MEAN_ANOMALY":"278.9436","SEMIMAJOR_AXIS":"6925.374","OBJECT_NAME":"STARLINK-1060","MEAN_MOTION_DDOT":"0.0000000000000","EPHEMERIS_TYPE":"0","INCLINATION":"53.0538","DECAY_DATE":null,"TLE_LINE1":"1 44765U 19074BE  21271.56656845 -.00000417  00000-0 -91551-5 0  9995","TLE_LINE2":"2 44765  53.0538 293.1019 0000810  81.1645 278.9436 15.06391793103828","MEAN_ELEMENT_THEORY":"SGP4","PERIAPSIS":"546.678","NORAD_CAT_ID":"44765"},{"MEAN_ANOMALY":"289.0509","EPHEMERIS_TYPE":"0","SEMIMAJOR_AXIS":"6925.389","OBJECT_NAME":"STARLINK-1061","MEAN_MOTION_DDOT":"0.0000000000000","REF_FRAME":"TEME","RA_OF_ASC_NODE":"312.2157","ARG_OF_PERICENTER":"71.0552","PERIAPSIS":"546.793","NORAD_CAT_ID":"44766","INCLINATION":"53.0538","TLE_LINE2":"2 44766  53.0538 312.2157 0000666  71.0552 289.0509 15.06386689103753","MEAN_ELEMENT_THEORY":"SGP4","DECAY_DATE":null,"TLE_LINE1":"1 44766U 19074BF  21271.76376924 -.00001685  00000-0 -94323-4 0  9992","PERIOD":"95.593","MEAN_MOTION_DOT":"-0.00001685","REV_AT_EPOCH":"10375","ECCENTRICITY":"0.00006660","CLASSIFICATION_TYPE":"U","EPOCH":"2021-09-28T18:19:49.662336","LAUNCH_DATE":"2019-11-11","APOAPSIS":"547.716","GP_ID":"185723251","RCS_SIZE":"LARGE","CENTER_NAME":"EARTH","BSTAR":"-0.00009432300000","FILE":"3132933","TIME_SYSTEM":"UTC","SITE":"AFETR","OBJECT_TYPE":"PAYLOAD","COUNTRY_CODE":"US","MEAN_MOTION":"15.06386689","OBJECT_ID":"2019-074BF","ELEMENT_SET_NO":"999"},{"MEAN_ANOMALY":"249.3866","SEMIMAJOR_AXIS":"6925.358","MEAN_MOTION_DDOT":"0.0000000000000","OBJECT_NAME":"STARLINK-1062","EPHEMERIS_TYPE":"0","ARG_OF_PERICENTER":"110.7221","RA_OF_ASC_NODE":"313.4436","REF_FRAME":"TEME","PERIAPSIS":"546.589","NORAD_CAT_ID":"44767","INCLINATION":"53.0542","DECAY_DATE":null,"TLE_LINE1":"1 44767U 19074BG  21271.49100724 -.00001903  00000-0 -10891-3 0  9996","TLE_LINE2":"2 44767  53.0542 313.4436 0000915 110.7221 249.3866 15.06396946103542","MEAN_ELEMENT_THEORY":"SGP4","MEAN_MOTION_DOT":"-0.00001903","PERIOD":"95.592","REV_AT_EPOCH":"10354","CLASSIFICATION_TYPE":"U","EPOCH":"2021-09-28T11:47:03.025536","LAUNCH_DATE":"2019-11-11","ECCENTRICITY":"0.00009150","APOAPSIS":"547.857","CENTER_NAME":"EARTH","GP_ID":"185715235","RCS_SIZE":"LARGE","SITE":"AFETR","FILE":"3132662","BSTAR":"-0.00010891000000","TIME_SYSTEM":"UTC","OBJECT_TYPE":"PAYLOAD","OBJECT_ID":"2019-074BG","ELEMENT_SET_NO":"999","MEAN_MOTION":"15.06396946","COUNTRY_CODE":"US"},{"EPHEMERIS_TYPE":"0","SEMIMAJOR_AXIS":"6925.358","OBJECT_NAME":"STARLINK-1063","MEAN_MOTION_DDOT":"0.0000000000000","MEAN_ANOMALY":"272.5631","REF_FRAME":"TEME","RA_OF_ASC_NODE":"312.1606","ARG_OF_PERICENTER":"87.5487","NORAD_CAT_ID":"44768","PERIAPSIS":"546.449","TLE_LINE2":"2 44768  53.0538 312.1606 0001119  87.5487 272.5631 15.06396773103754","MEAN_ELEMENT_THEORY":"SGP4","DECAY_DATE":null,"TLE_LINE1":"1 44768U 19074BH  21271.77850496  .00001402  00000-0  11303-3 0  9997","INCLINATION":"53.0538","ECCENTRICITY":"0.00011190","EPOCH":"2021-09-28T18:41:02.828544","CLASSIFICATION_TYPE":"U","LAUNCH_DATE":"2019-11-11","MEAN_MOTION_DOT":"0.00001402","PERIOD":"95.592","REV_AT_EPOCH":"10375","GP_ID":"185723253","RCS_SIZE":"LARGE","CENTER_NAME":"EARTH","APOAPSIS":"547.998","OBJECT_TYPE":"PAYLOAD","FILE":"3132933","BSTAR":"0.00011303000000","TIME_SYSTEM":"UTC","SITE":"AFETR","COUNTRY_CODE":"US","MEAN_MOTION":"15.06396773","ELEMENT_SET_NO":"999","OBJECT_ID":"2019-074BH"},{"NORAD_CAT_ID":"44769","PERIAPSIS":"438.237","TLE_LINE2":"2 44769  53.0563 301.7337 0002034  41.8753 318.2407 15.42198553103872","MEAN_ELEMENT_THEORY":"SGP4","DECAY_DATE":null,"TLE_LINE1":"1 44769U 19074BJ  21271.68696240  .00021445  00000-0  50018-3 0  9998","INCLINATION":"53.0563","EPHEMERIS_TYPE":"0","SEMIMAJOR_AXIS":"6817.759","MEAN_MOTION_DDOT":"0.0000000000000","OBJECT_NAME":"STARLINK-1064","MEAN_ANOMALY":"318.2407","RA_OF_ASC_NODE":"301.7337","REF_FRAME":"TEME","ARG_OF_PERICENTER":"41.8753","OBJECT_TYPE":"PAYLOAD","FILE":"3132933","BSTAR":"0.00050018000000","TIME_SYSTEM":"UTC","SITE":"AFETR","COUNTRY_CODE":"US","MEAN_MOTION":"15.42198553","ELEMENT_SET_NO":"999","OBJECT_ID":"2019-074BJ","ECCENTRICITY":"0.00020340","CLASSIFICATION_TYPE":"U","EPOCH":"2021-09-28T16:29:13.551360","LAUNCH_DATE":"2019-11-11","MEAN_MOTION_DOT":"0.00021445","PERIOD":"93.373","REV_AT_EPOCH":"10387","GP_ID":"185723258","RCS_SIZE":"LARGE","CENTER_NAME":"EARTH","APOAPSIS":"441.011"}];
